{
    "links": {
        "self": "http://www.neowsapp.com/rest/v1/neo/3670296?api_key=iIulBulltgU6a56xZRHN4H3l9WmuAYTsLGpBGhQ2"
    },
    "id": "3670296",
    "neo_reference_id": "3670296",
    "name": "(2014 HT184)",
    "designation": "2014 HT184",
    "nasa_jpl_url": "http://ssd.jpl.nasa.gov/sbdb.cgi?sstr=3670296",
    "absolute_magnitude_h": 21.9,
    "estimated_diameter": {
        "kilometers": {
            "estimated_diameter_min": 0.1108038821,
            "estimated_diameter_max": 0.2477650126
        },
        "meters": {
            "estimated_diameter_min": 110.8038821264,
            "estimated_diameter_max": 247.7650126055
        },
        "miles": {
            "estimated_diameter_min": 0.068850319,
            "estimated_diameter_max": 0.1539539936
        },
        "feet": {
            "estimated_diameter_min": 363.5298086356,
            "estimated_diameter_max": 812.8773639568
        }
    },
    "is_potentially_hazardous_asteroid": false,
    "close_approach_data": [
        {
            "close_approach_date": "2014-05-20",
            "close_approach_date_full": "2014-May-20 11:51",
            "epoch_date_close_approach": 1400586660000,
            "relative_velocity": {
                "kilometers_per_second": "25.9376963651",
                "kilometers_per_hour": "93375.7069143017",
                "miles_per_hour": "58020.032999056"
            },
            "miss_distance": {
                "astronomical": "0.1064942776",
                "lunar": "41.4262739864",
                "kilometers": "15931317.096148712",
                "miles": "9899261.4086957456"
            },
            "orbiting_body": "Earth"
        },
        {
            "close_approach_date": "2014-06-24",
            "close_approach_date_full": "2014-Jun-24 12:39",
            "epoch_date_close_approach": 1403613540000,
            "relative_velocity": {
                "kilometers_per_second": "30.3631480157",
                "kilometers_per_hour": "109307.3328566698",
                "miles_per_hour": "67919.3257964124"
            },
            "miss_distance": {
                "astronomical": "0.0896247315",
                "lunar": "34.8640205535",
                "kilometers": "13407668.931721905",
                "miles": "8331139.154116089"
            },
            "orbiting_body": "Merc"
        },
        {
            "close_approach_date": "2178-05-07",
            "close_approach_date_full": "2178-May-07 01:08",
            "epoch_date_close_approach": 6574784880000,
            "relative_velocity": {
                "kilometers_per_second": "36.8761017004",
                "kilometers_per_hour": "132753.9661214522",
                "miles_per_hour": "82488.1518936324"
            },
            "miss_distance": {
                "astronomical": "0.2954651108",
                "lunar": "114.9359281012",
                "kilometers": "44200951.234993996",
                "miles": "27465197.5192933048"
            },
            "orbiting_body": "Earth"
        }
    ],
    "orbital_data": {
        "orbit_id": "8",
        "orbit_determination_date": "2017-04-06 08:41:12",
        "first_observation_date": "2014-04-30",
        "last_observation_date": "2014-05-17",
        "data_arc_in_days": 17,
        "observations_used": 28,
        "orbit_uncertainty": "8",
        "minimum_orbit_intersection": ".0613871",
        "jupiter_tisserand_invariant": "4.252",
        "epoch_osculation": "2456779.5",
        "eccentricity": ".7875700459007225",
        "semi_major_axis": "1.428594058094963",
        "inclination": "19.33096822982004",
        "ascending_node_longitude": "46.36340590850432",
        "orbital_period": "623.6798113000614",
        "perihelion_distance": ".3034761701876136",
        "perihelion_argument": "316.9210290485618",
        "aphelion_distance": "2.553711946002313",
        "perihelion_time": "2456846.642191401459",
        "mean_anomaly": "321.2442338735635",
        "mean_motion": ".5772192613539623",
        "equinox": "J2000",
        "orbit_class": {
            "orbit_class_type": "APO",
            "orbit_class_description": "Near-Earth asteroid orbits which cross the Earth’s orbit similar to that of 1862 Apollo",
            "orbit_class_range": "a (semi-major axis) > 1.0 AU; q (perihelion) < 1.017 AU"
        }
    },
    "is_sentry_object": false
}